COMMENT,ORIGINATOR,NORAD_CAT_ID,OBJECT_NAME,OBJECT_TYPE,CLASSIFICATION_TYPE,INTLDES,EPOCH,EPOCH_MICROSECONDS,MEAN_MOTION,ECCENTRICITY,INCLINATION,RA_OF_ASC_NODE,ARG_OF_PERICENTER,MEAN_ANOMALY,EPHEMERIS_TYPE,ELEMENT_SET_NO,REV_AT_EPOCH,BSTAR,MEAN_MOTION_DOT,MEAN_MOTION_DDOT,FILE,TLE_LINE0,TLE_LINE1,TLE_LINE2,OBJECT_ID,OBJECT_NUMBER,SEMIMAJOR_AXIS,PERIOD,APOGEE,PERIGEE,DECAYED
GENERATED VIA SPACETRACK.ORG API,18 SPCS,38778,ASTRA 2F,PAYLOAD,U,12051A,2023-02-21 07:47:42,828864,1.00271577,0.0002692,0.0813,253.0454,13.9827,29.0166,0,999,2897,0,1.35e-06,0,3819803,0 ASTRA 2F,1 38778U 12051A   23052.32480126  .00000135  00000-0  00000-0 0  9999,2 38778   0.0813 253.0454 0002692  13.9827  29.0166  1.00271577 28979,2012-051A,38778,42164.79,1436.1,35798.006,35775.305,0
GENERATED VIA SPACETRACK.ORG API,18 SPCS,38778,ASTRA 2F,PAYLOAD,U,12051A,2023-02-22 07:19:42,595104,1.00273519,0.0002869,0.1038,258.2185,3.8047,27.9941,0,999,3814,0,1.36e-06,0,3823417,0 ASTRA 2F,1 38778U 12051A   23053.30535411  .00000136  00000-0  00000+0 0  9996,2 38778   0.1038 258.2185 0002869   3.8047  27.9941  1.00273519 38141,2012-051A,38778,42164.246,1436.072,35798.208,35774.014,0
GENERATED VIA SPACETRACK.ORG API,18 SPCS,38778,ASTRA 2F,PAYLOAD,U,12051A,2023-02-22 09:02:42,650592,1.00273586,0.0002868,0.1037,258.1793,3.8883,53.7711,0,999,2898,0,1.36e-06,0,3824148,0 ASTRA 2F,1 38778U 12051A   23053.37688253  .00000136  00000-0  00000-0 0  9997,2 38778   0.1037 258.1793 0002868   3.8883  53.7711  1.00273586 28988,2012-051A,38778,42164.227,1436.071,35798.185,35773.999,0
GENERATED VIA SPACETRACK.ORG API,18 SPCS,38778,ASTRA 2F,PAYLOAD,U,12051A,2023-02-22 22:07:42,668832,1.00274167,0.0002861,0.1024,257.8955,4.8011,249.9348,0,999,2899,0,1.37e-06,0,3825529,0 ASTRA 2F,1 38778U 12051A   23053.92202163  .00000137  00000-0  00000-0 0  9991,2 38778   0.1024 257.8955 0002861   4.8011 249.9348  1.00274167 28999,2012-051A,38778,42164.064,1436.063,35797.992,35773.866,0
GENERATED VIA SPACETRACK.ORG API,18 SPCS,38778,ASTRA 2F,PAYLOAD,U,12051A,2023-02-23 07:59:42,622080,1.00274246,0.0002854,0.1014,257.6334,5.1638,38.2419,0,999,3815,0,1.38e-06,0,3828409,0 ASTRA 2F,1 38778U 12051A   23054.33313220  .00000138  00000-0  00000+0 0  9994,2 38778   0.1014 257.6334 0002854   5.1638  38.2419  1.00274246 38153,2012-051A,38778,42164.042,1436.062,35797.941,35773.873,0
GENERATED VIA SPACETRACK.ORG API,18 SPCS,38778,ASTRA 2F,PAYLOAD,U,12051A,2023-02-23 07:59:42,622080,1.00274246,0.0002854,0.1014,257.6334,5.1638,38.2419,0,999,2899,0,1.38e-06,0,3828819,0 ASTRA 2F,1 38778U 12051A   23054.33313220  .00000138  00000-0  00000-0 0  9995,2 38778   0.1014 257.6334 0002854   5.1638  38.2419  1.00274246 28994,2012-051A,38778,42164.042,1436.062,35797.941,35773.873,0
GENERATED VIA SPACETRACK.ORG API,18 SPCS,38778,ASTRA 2F,PAYLOAD,U,12051A,2023-02-23 21:36:42,602112,1.00274627,0.0002837,0.1,257.3086,6.089,242.4564,0,999,2900,0,1.39e-06,0,3830532,0 ASTRA 2F,1 38778U 12051A   23054.90049308  .00000139  00000-0  00000-0 0  9992,2 38778   0.1000 257.3086 0002837   6.0890 242.4564  1.00274627 29007,2012-051A,38778,42163.935,1436.056,35797.762,35773.838,0
GENERATED VIA SPACETRACK.ORG API,18 SPCS,38778,ASTRA 2F,PAYLOAD,U,12051A,2023-02-24 06:55:42,572352,1.00274872,0.0002838,0.099,257.0688,6.5256,22.3962,0,999,2900,0,1.4e-06,0,3832867,0 ASTRA 2F,1 38778U 12051A   23055.28868718  .00000140  00000-0  00000-0 0  9990,2 38778   0.0990 257.0688 0002838   6.5256  22.3962  1.00274872 29000,2012-051A,38778,42163.867,1436.053,35797.698,35773.765,0
GENERATED VIA SPACETRACK.ORG API,18 SPCS,38778,ASTRA 2F,PAYLOAD,U,12051A,2023-02-24 21:34:42,646080,1.00275306,0.000282,0.0976,256.7051,7.4343,242.211,0,999,2901,0,1.41e-06,0,3835059,0 ASTRA 2F,1 38778U 12051A   23055.89910470  .00000141  00000-0  00000-0 0  9991,2 38778   0.0976 256.7051 0002820   7.4343 242.2110  1.00275306 29014,2012-051A,38778,42163.745,1436.046,35797.5,35773.72,0
GENERATED VIA SPACETRACK.ORG API,18 SPCS,38778,ASTRA 2F,PAYLOAD,U,12051A,2023-02-24 22:53:19,735296,1.00275353,0.0002814,0.0975,256.6995,7.4893,261.8707,0,999,3817,0,1.41e-06,0,3834602,0 ASTRA 2F,1 38778U 12051A   23055.95370064  .00000141  00000-0  00000+0 0  9996,2 38778   0.0975 256.6995 0002814   7.4893 261.8707  1.00275353 38170,2012-051A,38778,42163.732,1436.046,35797.462,35773.732,0
GENERATED VIA SPACETRACK.ORG API,18 SPCS,38778,ASTRA 2F,PAYLOAD,U,12051A,2023-02-25 12:39:26,789760,1.00275716,0.0002817,0.0961,256.3755,8.2978,108.4888,0,999,2901,0,1.42e-06,0,3837605,0 ASTRA 2F,1 38778U 12051A   23056.52739340  .00000142  00000-0  00000-0 0  9998,2 38778   0.0961 256.3755 0002817   8.2978 108.4888  1.00275716 29014,2012-051A,38778,42163.63,1436.041,35797.372,35773.618,0
GENERATED VIA SPACETRACK.ORG API,18 SPCS,38778,ASTRA 2F,PAYLOAD,U,12051A,2023-02-25 21:51:56,837664,1.00275984,0.0002789,0.0952,256.0975,8.8998,246.6741,0,999,2902,0,1.43e-06,0,3839003,0 ASTRA 2F,1 38778U 12051A   23056.91107451  .00000143  00000-0  00000-0 0  9994,2 38778   0.0952 256.0975 0002789   8.8998 246.6741  1.00275984 29022,2012-051A,38778,42163.555,1436.037,35797.179,35773.66,0
GENERATED VIA SPACETRACK.ORG API,18 SPCS,38778,ASTRA 2F,PAYLOAD,U,12051A,2023-02-26 04:44:08,780640,1.00276172,0.0002791,0.0945,255.9772,9.2325,349.798,0,999,3818,0,1.43e-06,0,3839920,0 ASTRA 2F,1 38778U 12051A   23057.19732385  .00000143  00000-0  00000+0 0  9994,2 38778   0.0945 255.9772 0002791   9.2325 349.7980  1.00276172 38186,2012-051A,38778,42163.502,1436.034,35797.135,35773.599,0
GENERATED VIA SPACETRACK.ORG API,18 SPCS,38778,ASTRA 2F,PAYLOAD,U,12051A,2023-02-26 09:43:08,733216,1.00276297,0.0002794,0.0941,255.8249,9.6483,64.4922,0,999,2902,0,1.43e-06,0,3841853,0 ASTRA 2F,1 38778U 12051A   23057.40496219  .00000143  00000-0  00000-0 0  9992,2 38778   0.0941 255.8249 0002794   9.6483  64.4922  1.00276297 29020,2012-051A,38778,42163.467,1436.032,35797.113,35773.552,0
GENERATED VIA SPACETRACK.ORG API,18 SPCS,38778,ASTRA 2F,PAYLOAD,U,12051A,2023-02-27 04:14:25,286784,1.00269102,0.0003279,0.0923,255.4685,14.1067,338.9579,0,999,3819,0,1.44e-06,0,3844224,0 ASTRA 2F,1 38778U 12051A   23058.17668156  .00000144  00000-0  00000+0 0  9998,2 38778   0.0923 255.4685 0003279  14.1067 338.9579  1.00269102 38190,2012-051A,38778,42165.484,1436.135,35801.175,35773.523,0
GENERATED VIA SPACETRACK.ORG API,18 SPCS,38778,ASTRA 2F,PAYLOAD,U,12051A,2023-02-27 07:40:53,846688,1.00269121,0.0003278,0.092,255.3491,14.3193,30.6235,0,999,2903,0,1.44e-06,0,3846396,0 ASTRA 2F,1 38778U 12051A   23058.32006767  .00000144  00000-0  00000-0 0  9990,2 38778   0.0920 255.3491 0003278  14.3193  30.6235  1.00269121 29031,2012-051A,38778,42165.479,1436.135,35801.166,35773.522,0
GENERATED VIA SPACETRACK.ORG API,18 SPCS,38778,ASTRA 2F,PAYLOAD,U,12051A,2023-02-27 18:00:27,63936,1.0026931,0.0003271,0.091,255.1692,14.6911,185.74,0,999,2903,0,1.44e-06,0,3846812,0 ASTRA 2F,1 38778U 12051A   23058.75031324  .00000144  00000-0  00000-0 0  9994,2 38778   0.0910 255.1692 0003271  14.6911 185.7400  1.00269310 29031,2012-051A,38778,42165.426,1436.132,35801.083,35773.498,0
GENERATED VIA SPACETRACK.ORG API,18 SPCS,38778,ASTRA 2F,PAYLOAD,U,12051A,2023-02-28 04:20:05,623296,1.00269536,0.0003238,0.0901,254.9834,15.165,340.7831,0,999,3820,0,1.44e-06,0,3847166,0 ASTRA 2F,1 38778U 12051A   23059.18062064  .00000144  00000-0  00000+0 0  9996,2 38778   0.0901 254.9834 0003238  15.1650 340.7831  1.00269536 38205,2012-051A,38778,42165.362,1436.129,35800.881,35773.574,0
GENERATED VIA SPACETRACK.ORG API,18 SPCS,38778,ASTRA 2F,PAYLOAD,U,12051A,2023-02-28 12:56:18,759264,1.00269747,0.0003241,0.0895,254.8187,15.7087,109.8093,0,999,2904,0,1.44e-06,0,3847542,0 ASTRA 2F,1 38778U 12051A   23059.53910601  .00000144  00000-0  00000-0 0  9995,2 38778   0.0895 254.8187 0003241  15.7087 109.8093  1.00269747 29041,2012-051A,38778,42165.303,1436.126,35800.834,35773.503,0
GENERATED VIA SPACETRACK.ORG API,18 SPCS,38778,ASTRA 2F,PAYLOAD,U,12051A,2023-02-28 19:49:19,690176,1.00269966,0.000328,0.0888,254.5803,15.9795,213.3117,0,999,2905,0,1.44e-06,0,3847656,0 ASTRA 2F,1 38778U 12051A   23059.82592234  .00000144  00000-0  00000-0 0  9995,2 38778   0.0888 254.5803 0003280  15.9795 213.3117  1.00269966 29058,2012-051A,38778,42165.242,1436.123,35800.937,35773.277,0
GENERATED VIA SPACETRACK.ORG API,18 SPCS,38778,ASTRA 2F,PAYLOAD,U,12051A,2023-03-01 07:51:44,913024,1.00270294,0.0003263,0.0879,254.2894,16.4258,34.2531,0,999,3821,0,1.44e-06,0,3848405,0 ASTRA 2F,1 38778U 12051A   23060.32760316  .00000144  00000-0  00000+0 0  9999,2 38778   0.0879 254.2894 0003263  16.4258  34.2531  1.00270294 38210,2012-051A,38778,42165.15,1436.118,35800.773,35773.256,0
GENERATED VIA SPACETRACK.ORG API,18 SPCS,38778,ASTRA 2F,PAYLOAD,U,12051A,2023-03-01 18:11:44,369088,1.00270462,0.0003169,0.087,254.0543,17.2719,189.0617,0,999,2905,0,1.44e-06,0,3848834,0 ASTRA 2F,1 38778U 12051A   23060.75815242  .00000144  00000-0  00000-0 0  9996,2 38778   0.0870 254.0543 0003169  17.2719 189.0617  1.00270462 29059,2012-051A,38778,42165.103,1436.116,35800.33,35773.606,0
GENERATED VIA SPACETRACK.ORG API,18 SPCS,38778,ASTRA 2F,PAYLOAD,U,12051A,2023-03-04 04:40:42,728736,1.00271706,0.0002956,0.0824,252.2539,20.6778,347.0957,0,999,3824,0,1.44e-06,0,3850710,0 ASTRA 2F,1 38778U 12051A   23063.19493899  .00000144  00000-0  00000+0 0  9996,2 38778   0.0824 252.2539 0002956  20.6778 347.0957  1.00271706 38245,2012-051A,38778,42164.754,1436.098,35799.083,35774.155,0
GENERATED VIA SPACETRACK.ORG API,18 SPCS,38778,ASTRA 2F,PAYLOAD,U,12051A,2023-03-04 06:38:42,935712,1.00271738,0.0002945,0.0823,252.1206,20.8871,16.6012,0,999,2908,0,1.44e-06,0,3851072,0 ASTRA 2F,1 38778U 12051A   23063.27688583  .00000144  00000-0  00000-0 0  9992,2 38778   0.0823 252.1206 0002945  20.8871  16.6012  1.00271738 29086,2012-051A,38778,42164.745,1436.098,35799.028,35774.193,0
